COSMOS 2251 DEB         
1 34337U 93036PK  17345.81619922  .00002498  00000-0  19260-3 0  9993
2 34337  73.9808 130.6156 0102889 270.7327  88.2070 14.98134648476027
